
# Worst residual: 6.01 km
# MJD 59366.000000 (2021 Jun  1  0:00)
A10v8km = ZTF0Kci
1 88864U 00000ABJ 21152.49919926  .00000000  00000-0  00000-0 0 11942
2 88864 025.6438 150.2194 7616240 190.0235 308.9131 01.69946636    07

# Worst residual: 6.27 km
# MJD 59367.000000 (2021 Jun  2  0:00)
A10v8km = ZTF0Kci
1 88864U 00000ABJ 21153.49919926  .00000000  00000-0  00000-0 0 11943
2 88864 025.6476 149.9876 7615963 190.4195 200.7124 01.69948614    00

# Worst residual: 6.59 km
# MJD 59368.000000 (2021 Jun  3  0:00)
A10v8km = ZTF0Kci
1 88864U 00000ABJ 21154.49919926  .00000000  00000-0  00000-0 0 11944
2 88864 025.6486 149.7547 7615819 190.8163 092.5144 01.69949775    01

# Worst residual: 6.19 km
# MJD 59369.000000 (2021 Jun  4  0:00)
A10v8km = ZTF0Kci
1 88864U 00000ABJ 21155.49919926  .00000000  00000-0  00000-0 0 11945
2 88864 025.6466 149.5189 7615812 191.2183 344.3142 01.69952488    00

# Worst residual: 6.81 km
# MJD 59370.000000 (2021 Jun  5  0:00)
A10v8km = ZTF0Kci
1 88864U 00000ABJ 21156.49919926  .00000000  00000-0  00000-0 0 11946
2 88864 025.6477 149.2848 7615520 191.6192 236.1114 01.69946326    02

# Worst residual: 6.73 km
# MJD 59371.000000 (2021 Jun  6  0:00)
A10v8km = ZTF0Kci
1 88864U 00000ABJ 21157.49919926  .00000000  00000-0  00000-0 0 11947
2 88864 025.6512 149.0548 7615125 192.0134 127.9034 01.69946096    01

# Worst residual: 6.45 km
# MJD 59372.000000 (2021 Jun  7  0:00)
A10v8km = ZTF0Kci
1 88864U 00000ABJ 21158.49919926  .00000000  00000-0  00000-0 0 11948
2 88864 025.6490 148.8184 7615253 192.4183 019.6988 01.69949493    08

# Worst residual: 7.29 km
# MJD 59373.000000 (2021 Jun  8  0:00)
A10v8km = ZTF0Kci
1 88864U 00000ABJ 21159.49919926  .00000000  00000-0  00000-0 0 11949
2 88864 025.6557 148.5868 7614694 192.8166 271.5009 01.69949125    06

# Worst residual: 7.53 km
# MJD 59374.000000 (2021 Jun  9  0:00)
A10v8km = ZTF0Kci
1 88864U 00000ABJ 21160.49919926  .00000000  00000-0  00000-0 0 11941
2 88864 025.6549 148.3575 7614400 193.2080 163.3018 01.69948331    01

# Worst residual: 8.04 km
# MJD 59375.000000 (2021 Jun 10  0:00)
A10v8km = ZTF0Kci
1 88864U 00000ABJ 21161.49919926  .00000000  00000-0  00000-0 0 11942
2 88864 025.6480 148.1181 7614600 193.6130 055.1010 01.69951777    06

# Worst residual: 6.05 km
# MJD 59376.000000 (2021 Jun 11  0:00)
A10v8km = ZTF0Kci
1 88864U 00000ABJ 21162.49919926  .00000000  00000-0  00000-0 0 11943
2 88864 025.6488 147.8853 7614068 194.0135 306.8959 01.69946890    02

# Worst residual: 6.40 km
# MJD 59377.000000 (2021 Jun 12  0:00)
A10v8km = ZTF0Kci
1 88864U 00000ABJ 21163.49919926  .00000000  00000-0  00000-0 0 11944
2 88864 025.6521 147.6516 7613890 194.4112 198.6950 01.69948586    07

# Worst residual: 6.86 km
# MJD 59378.000000 (2021 Jun 13  0:00)
A10v8km = ZTF0Kci
1 88864U 00000ABJ 21164.49919926  .00000000  00000-0  00000-0 0 11945
2 88864 025.6538 147.4191 7613849 194.8079 090.4961 01.69950140    02

# Worst residual: 6.27 km
# MJD 59379.000000 (2021 Jun 14  0:00)
A10v8km = ZTF0Kci
1 88864U 00000ABJ 21165.49919926  .00000000  00000-0  00000-0 0 11946
2 88864 025.6520 147.1825 7613933 195.2113 342.2947 01.69952308    02

# Worst residual: 7.20 km
# MJD 59380.000000 (2021 Jun 15  0:00)
A10v8km = ZTF0Kci
1 88864U 00000ABJ 21166.49919926  .00000000  00000-0  00000-0 0 11947
2 88864 025.6535 146.9484 7613760 195.6132 234.0875 01.69945203    03

# Worst residual: 6.55 km
# MJD 59381.000000 (2021 Jun 16  0:00)
A10v8km = ZTF0Kci
1 88864U 00000ABJ 21167.49919926  .00000000  00000-0  00000-0 0 11948
2 88864 025.6572 146.7179 7613443 196.0106 125.8717 01.69943949    04

# Worst residual: 6.23 km
# MJD 59382.000000 (2021 Jun 17  0:00)
A10v8km = ZTF0Kci
1 88864U 00000ABJ 21168.49919926  .00000000  00000-0  00000-0 0 11949
2 88864 025.6543 146.4804 7613655 196.4185 017.6584 01.69949855    02

# Worst residual: 7.10 km
# MJD 59383.000000 (2021 Jun 18  0:00)
A10v8km = ZTF0Kci
1 88864U 00000ABJ 21169.49919926  .00000000  00000-0  00000-0 0 11940
2 88864 025.6600 146.2476 7612993 196.8214 269.4494 01.69946555    01

# Worst residual: 7.56 km
# MJD 59384.000000 (2021 Jun 19  0:00)
A10v8km = ZTF0Kci
1 88864U 00000ABJ 21170.49919926  .00000000  00000-0  00000-0 0 11942
2 88864 025.6571 146.0153 7612593 197.2174 161.2407 01.69946144    01

# Worst residual: 7.26 km
# MJD 59385.000000 (2021 Jun 20  0:00)
A10v8km = ZTF0Kci
1 88864U 00000ABJ 21171.49919926  .00000000  00000-0  00000-0 0 11943
2 88864 025.6510 145.7738 7612478 197.6270 053.0327 01.69949547    01

# Worst residual: 6.85 km
# MJD 59386.000000 (2021 Jun 21  0:00)
A10v8km = ZTF0Kci
1 88864U 00000ABJ 21172.49919926  .00000000  00000-0  00000-0 0 11944
2 88864 025.6488 145.5364 7611896 198.0326 304.8230 01.69945569    08

# Worst residual: 6.41 km
# MJD 59387.000000 (2021 Jun 22  0:00)
A10v8km = ZTF0Kci
1 88864U 00000ABJ 21173.49919926  .00000000  00000-0  00000-0 0 11945
2 88864 025.6517 145.3056 7611723 198.4273 196.6169 01.69947031    05

# Worst residual: 7.16 km
# MJD 59388.000000 (2021 Jun 23  0:00)
A10v8km = ZTF0Kci
1 88864U 00000ABJ 21174.49919926  .00000000  00000-0  00000-0 0 11946
2 88864 025.6550 145.0718 7611627 198.8252 088.4150 01.69950306    05

# Worst residual: 6.69 km
# MJD 59389.000000 (2021 Jun 24  0:00)
A10v8km = ZTF0Kci
1 88864U 00000ABJ 21175.49919926  .00000000  00000-0  00000-0 0 11947
2 88864 025.6527 144.8345 7611726 199.2291 340.2114 01.69951820    01

# Worst residual: 7.20 km
# MJD 59390.000000 (2021 Jun 25  0:00)
A10v8km = ZTF0Kci
1 88864U 00000ABJ 21176.49919926  .00000000  00000-0  00000-0 0 11948
2 88864 025.6535 144.6003 7611619 199.6302 232.0029 01.69945269    00

# Worst residual: 6.25 km
# MJD 59391.000000 (2021 Jun 26  0:00)
A10v8km = ZTF0Kci
1 88864U 00000ABJ 21177.49919926  .00000000  00000-0  00000-0 0 11949
2 88864 025.6546 144.3689 7611559 200.0280 123.7876 01.69944220    06

# Worst residual: 6.52 km
# MJD 59392.000000 (2021 Jun 27  0:00)
A10v8km = ZTF0Kci
1 88864U 00000ABJ 21178.49919926  .00000000  00000-0  00000-0 0 11940
2 88864 025.6495 144.1286 7611745 200.4361 015.5774 01.69950437    03

# Worst residual: 6.92 km
# MJD 59393.000000 (2021 Jun 28  0:00)
A10v8km = ZTF0Kci
1 88864U 00000ABJ 21179.49919926  .00000000  00000-0  00000-0 0 11941
2 88864 025.6538 143.8954 7611249 200.8367 267.3733 01.69947358    08

# Worst residual: 7.35 km
# MJD 59394.000000 (2021 Jun 29  0:00)
A10v8km = ZTF0Kci
1 88864U 00000ABJ 21180.49919926  .00000000  00000-0  00000-0 0 11943
2 88864 025.6514 143.6625 7611131 201.2304 159.1706 01.69947086    07

# Worst residual: 7.34 km
# MJD 59395.000000 (2021 Jun 30  0:00)
A10v8km = ZTF0Kci
1 88864U 00000ABJ 21181.49919926  .00000000  00000-0  00000-0 0 11944
2 88864 025.6472 143.4221 7611422 201.6361 050.9680 01.69950730    09
